STARLINK-5625           
1 55368U 23013AP  26195.26423284 -.00000596  00000+0 -12107-4 0  9996
2 55368  43.0031 293.6742 0001976 280.1520  79.9109 15.27577117191205
STARLINK-5644           
1 55369U 23013AQ  26195.39093622 -.00001227  00000+0 -35095-4 0  9993
2 55369  43.0043 325.7239 0001323 256.2668 103.8037 15.27571970190847
STARLINK-5027           
1 55370U 23013AR  26195.40122943  .00005887  00000+0  22350-3 0  9999
2 55370  43.0037 325.8071 0002080 290.7048  69.3580 15.27546504190847
STARLINK-5590           
1 55371U 23013AS  26195.38707598 -.00000105  00000+0  57040-5 0  9997
2 55371  43.0049 325.6980 0001441 281.9976  78.0714 15.27576430191769
STARLINK-5568           
1 55372U 23013AT  26195.36844264 -.00000390  00000+0 -46570-5 0  9991
2 55372  43.0023 322.9901 0001414 271.7336  88.3353 15.27573123190872
STARLINK-5581           
1 55373U 23013AU  26195.43719328  .00000534  00000+0  28956-4 0  9997
2 55373  43.0058 326.0594 0002827 293.3234  66.7320 15.27567413190846
STARLINK-5578           
1 55374U 23013AV  26195.36923145  .00000061  00000+0  11739-4 0  9990
2 55374  43.0025 326.4121 0001673 258.2822 101.7842 15.27578413190832
STARLINK-5588           
1 55375U 23013AW  26195.40892129 -.00000271  00000+0 -31678-6 0  9994
2 55375  43.0061 325.8565 0001500 271.2704  88.7976 15.27579073190847
STARLINK-5586           
1 55376U 23013AX  26195.55533024 -.00000390  00000+0 -46525-5 0  9995
2 55376  43.0020 292.4085 0000906 266.4289  93.6459 15.27574179191240
STARLINK-5567           
1 55377U 23013AY  26195.36458958 -.00000373  00000+0 -40213-5 0  9996
2 55377  43.0030 322.9574 0001718 284.7374  75.3288 15.27572256190873
STARLINK-5572           
1 55378U 23013AZ  26195.38450682 -.00001457  00000+0 -43428-4 0  9999
2 55378  43.0023 325.6748 0001189 273.4185  86.6531 15.27573100190848
STARLINK-5569           
1 55379U 23013BA  26195.35816513 -.00000808  00000+0 -19850-4 0  9997
2 55379  43.0026 322.9083 0001912 275.4230  84.6403 15.27569283190877
STARLINK-5571           
1 55380U 23013BB  26195.58597909  .00025604  00000+0  10612-2 0  9993
2 55380  42.9985 310.5095 0000973 266.2897  93.7842 15.23423534191031
STARLINK-5575           
1 55381U 23013BC  26195.36586729  .00000102  00000+0  13237-4 0  9992
2 55381  43.0017 322.9635 0001121 253.3007 106.7722 15.27578049190872
STARLINK-5576           
1 55382U 23013BD  26195.36202242 -.00000532  00000+0 -98129-5 0  9991
2 55382  43.0033 322.9403 0001631 265.4482  94.6184 15.27571506190879
STARLINK-5531           
1 55383U 23013BE  26195.54376354 -.00000130  00000+0  48162-5 0  9993
2 55383  43.0049 292.3201 0001914 277.3309  82.7325 15.27574447191241
STARLINK-5537           
1 55384U 23013BF  26195.41969387 -.00000217  00000+0  16400-5 0  9990
2 55384  43.0042 322.5179 0001931 278.0083  82.0549 15.27573682190881
STARLINK-5556           
1 55385U 23013BG  26195.42612082 -.00000660  00000+0 -14454-4 0  9998
2 55385  43.0031 322.5550 0001434 275.8013  84.2675 15.27571693190883
STARLINK-5555           
1 55386U 23013BH  26195.43511701 -.00001116  00000+0 -31059-4 0  9993
2 55386  43.0042 322.6256 0001232 266.0730  93.9981 15.27572855190882
STARLINK-5085           
1 55392U 23014B   26195.41521996 -.00000073  00000+0  16605-5 0  9997
2 55392  69.9994  84.8268 0002836 269.1181  90.9653 14.98329662191536
STARLINK-4786           
1 55393U 23014C   26195.16928166  .00000932  00000+0  85907-4 0  9993
2 55393  70.0002 105.4572 0002932 256.9199 103.1633 14.98335584191005
STARLINK-5274           
1 55395U 23014E   26195.49472764  .00002256  00000+0  19689-3 0  9993
2 55395  69.9997 104.5641 0002420 266.5025  93.5858 14.98305939191058
STARLINK-5283           
1 55396U 23014F   26195.49890075 -.00000188  00000+0 -79606-5 0  9994
2 55396  70.0001 104.5900 0003006 247.5736 112.5105 14.98331097191056
STARLINK-5224           
1 55397U 23014G   26195.39437446  .00000469  00000+0  47068-4 0  9999
2 55397  70.0000  85.1425 0002861 266.8468  93.2364 14.98332162191524
STARLINK-5275           
1 55398U 23014H   26195.44883598 -.00000008  00000+0  71517-5 0  9996
2 55398  69.9999 104.8146 0003068 262.8216  97.2595 14.98330977191044
STARLINK-5276           
1 55399U 23014J   26195.17344945 -.00000177  00000+0 -70320-5 0  9994
2 55399  70.0000 105.4585 0002971 269.2186  90.8632 14.98329022191000
STARLINK-5632           
1 55400U 23014K   26195.45718191 -.00000032  00000+0  50911-5 0  9999
2 55400  69.9994 104.8396 0003012 263.6171  96.4645 14.98319684191047
STARLINK-5076           
1 55401U 23014L   26195.17759912  .00001786  00000+0  15736-3 0  9995
2 55401  69.9995 105.4739 0003308 274.1142  85.9639 14.98346897191008
STARLINK-5071           
1 55402U 23014M   26195.46553564 -.00000840  00000+0 -62643-4 0  9995
2 55402  70.0001 104.8737 0002740 268.1298  91.9547 14.98329546191046
STARLINK-5597           
1 55403U 23014N   26195.45301124 -.00000171  00000+0 -65558-5 0  9994
2 55403  70.0000 104.8304 0002611 262.5943  97.4920 14.98330325191041
