OBJECT_NAME,OBJECT_ID,EPOCH,MEAN_MOTION,ECCENTRICITY,INCLINATION,RA_OF_ASC_NODE,ARG_OF_PERICENTER,MEAN_ANOMALY,EPHEMERIS_TYPE,CLASSIFICATION_TYPE,NORAD_CAT_ID,ELEMENT_SET_NO,REV_AT_EPOCH,BSTAR,MEAN_MOTION_DOT,MEAN_MOTION_DDOT
STARLINK-5625,2023-013AP,2026-07-14T06:20:29.717376,15.27577117,.00019765,43.0031,293.6742,280.1520,79.9109,0,U,55368,999,19120,-.12106789E-4,-.596E-5,0
STARLINK-5644,2023-013AQ,2026-07-14T09:22:56.889408,15.27571970,.00013236,43.0043,325.7239,256.2668,103.8037,0,U,55369,999,19084,-.35095109E-4,-.1227E-4,0
STARLINK-5027,2023-013AR,2026-07-14T09:37:46.222752,15.27546504,.000208,43.0037,325.8071,290.7048,69.3580,0,U,55370,999,19084,.22349946E-3,.5887E-4,0
STARLINK-5590,2023-013AS,2026-07-14T09:17:23.364672,15.27576430,.00014414,43.0049,325.6980,281.9976,78.0714,0,U,55371,999,19176,.5703975E-5,-.105E-5,0
STARLINK-5568,2023-013AT,2026-07-14T08:50:33.444096,15.27573123,.00014141,43.0023,322.9901,271.7336,88.3353,0,U,55372,999,19087,-.4657013E-5,-.39E-5,0
STARLINK-5581,2023-013AU,2026-07-14T10:29:33.499392,15.27567413,.00028277,43.0058,326.0594,293.3234,66.7320,0,U,55373,999,19084,.28955986E-4,.534E-5,0
STARLINK-5578,2023-013AV,2026-07-14T08:51:41.597280,15.27578413,.00016737,43.0025,326.4121,258.2822,101.7842,0,U,55374,999,19083,.11739232E-4,.61E-6,0
STARLINK-5588,2023-013AW,2026-07-14T09:48:50.799456,15.27579073,.00015003,43.0061,325.8565,271.2704,88.7976,0,U,55375,999,19084,-.316785E-6,-.271E-5,0
STARLINK-5586,2023-013AX,2026-07-14T13:19:40.532736,15.27574179,.00009067,43.0020,292.4085,266.4289,93.6459,0,U,55376,999,19124,-.465248E-5,-.39E-5,0
STARLINK-5567,2023-013AY,2026-07-14T08:45:00.539712,15.27572256,.00017186,43.0030,322.9574,284.7374,75.3288,0,U,55377,999,19087,-.4021299E-5,-.373E-5,0
STARLINK-5572,2023-013AZ,2026-07-14T09:13:41.389248,15.27573100,.0001189,43.0023,325.6748,273.4185,86.6531,0,U,55378,999,19084,-.43428121E-4,-.1457E-4,0
STARLINK-5569,2023-013BA,2026-07-14T08:35:45.467232,15.27569283,.00019127,43.0026,322.9083,275.4230,84.6403,0,U,55379,999,19087,-.19850032E-4,-.808E-5,0
STARLINK-5571,2023-013BB,2026-07-14T14:03:48.593376,15.23423534,.00009737,42.9985,310.5095,266.2897,93.7842,0,U,55380,999,19103,.10611668E-2,.25604E-3,0
STARLINK-5575,2023-013BC,2026-07-14T08:46:50.933856,15.27578049,.00011216,43.0017,322.9635,253.3007,106.7722,0,U,55381,999,19087,.13236917E-4,.102E-5,0
STARLINK-5576,2023-013BD,2026-07-14T08:41:18.737088,15.27571506,.00016314,43.0033,322.9403,265.4482,94.6184,0,U,55382,999,19087,-.9812888E-5,-.532E-5,0
STARLINK-5531,2023-013BE,2026-07-14T13:03:01.169856,15.27574447,.00019144,43.0049,292.3201,277.3309,82.7325,0,U,55383,999,19124,.4816184E-5,-.13E-5,0
STARLINK-5537,2023-013BF,2026-07-14T10:04:21.550368,15.27573682,.00019319,43.0042,322.5179,278.0083,82.0549,0,U,55384,999,19088,.1640029E-5,-.217E-5,0
STARLINK-5556,2023-013BG,2026-07-14T10:13:36.838848,15.27571693,.0001434,43.0031,322.5550,275.8013,84.2675,0,U,55385,999,19088,-.14454176E-4,-.66E-5,0
STARLINK-5555,2023-013BH,2026-07-14T10:26:34.109664,15.27572855,.00012327,43.0042,322.6256,266.0730,93.9981,0,U,55386,999,19088,-.31058521E-4,-.1116E-4,0
STARLINK-5085,2023-014B,2026-07-14T09:57:55.004544,14.98329662,.00028364,69.9994,84.8268,269.1181,90.9653,0,U,55392,999,19153,.166048E-5,-.73E-6,0
STARLINK-4786,2023-014C,2026-07-14T04:03:45.935424,14.98335584,.00029323,70.0002,105.4572,256.9199,103.1633,0,U,55393,999,19100,.85907069E-4,.932E-5,0
STARLINK-5274,2023-014E,2026-07-14T11:52:24.468096,14.98305939,.00024202,69.9997,104.5641,266.5025,93.5858,0,U,55395,999,19105,.19689117E-3,.2256E-4,0
STARLINK-5283,2023-014F,2026-07-14T11:58:25.024800,14.98331097,.00030066,70.0001,104.5900,247.5736,112.5105,0,U,55396,999,19105,-.7960558E-5,-.188E-5,0
STARLINK-5224,2023-014G,2026-07-14T09:27:53.953344,14.98332162,.00028613,70.0000,85.1425,266.8468,93.2364,0,U,55397,999,19152,.47067959E-4,.469E-5,0
STARLINK-5275,2023-014H,2026-07-14T10:46:19.428672,14.98330977,.00030684,69.9999,104.8146,262.8216,97.2595,0,U,55398,999,19104,.7151668E-5,-.8E-7,0
STARLINK-5276,2023-014J,2026-07-14T04:09:46.032480,14.98329022,.00029711,70.0000,105.4585,269.2186,90.8632,0,U,55399,999,19100,-.7032026E-5,-.177E-5,0
STARLINK-5632,2023-014K,2026-07-14T10:58:20.517024,14.98319684,.00030125,69.9994,104.8396,263.6171,96.4645,0,U,55400,999,19104,.5091118E-5,-.32E-6,0
STARLINK-5076,2023-014L,2026-07-14T04:15:44.563968,14.98346897,.00033081,69.9995,105.4739,274.1142,85.9639,0,U,55401,999,19100,.15736093E-3,.1786E-4,0
STARLINK-5071,2023-014M,2026-07-14T11:10:22.279296,14.98329546,.00027402,70.0001,104.8737,268.1298,91.9547,0,U,55402,999,19104,-.62642665E-4,-.84E-5,0
STARLINK-5597,2023-014N,2026-07-14T10:52:20.171136,14.98330325,.00026117,70.0000,104.8304,262.5943,97.4920,0,U,55403,999,19104,-.655581E-5,-.171E-5,0
